STARLINK-2317_new
1 17982C 21024F   21326.18123527  .00002704  00000-0  18934-3 0  3267
2 17982  53.0528 107.4569 0001492  56.4296 235.5919 15.04752053    12
STARLINK-2317_old
1 27982C 21024F   21325.15294242  .00001058  00000-0  74079-4 0  3259
2 27982  53.0523 112.0613 0001448  57.6009  60.9788 15.04746265    17
